[{"OBJECT_NAME":"HAWK-11B","OBJECT_ID":"2024-247C","EPOCH":"2026-03-09T10:44:06.809856","MEAN_MOTION":15.2884707,"ECCENTRICITY":0.00046902,"INCLINATION":45.0161,"RA_OF_ASC_NODE":115.761,"ARG_OF_PERICENTER":333.0326,"MEAN_ANOMALY":27.0314,"EPHEMERIS_TYPE":0,"CLASSIFICATION_TYPE":"U","NORAD_CAT_ID":62379,"ELEMENT_SET_NO":999,"REV_AT_EPOCH":6773,"BSTAR":0.00032841927,"MEAN_MOTION_DOT":9.093e-5,"MEAN_MOTION_DDOT":0},{"OBJECT_NAME":"STARLINK-34412","OBJECT_ID":"2025-237U","EPOCH":"2026-03-09T07:28:26.479776","MEAN_MOTION":15.30203193,"ECCENTRICITY":0.00010419,"INCLINATION":53.1637,"RA_OF_ASC_NODE":41.3082,"ARG_OF_PERICENTER":91.6186,"MEAN_ANOMALY":268.4935,"EPHEMERIS_TYPE":0,"CLASSIFICATION_TYPE":"U","NORAD_CAT_ID":66132,"ELEMENT_SET_NO":999,"REV_AT_EPOCH":2246,"BSTAR":0.00095381907,"MEAN_MOTION_DOT":0.00027999,"MEAN_MOTION_DDOT":0}]
