HAWK-11B                
1 62379U 24247C   26068.44730104  .00009093  00000+0  32842-3 0  9993
2 62379  45.0161 115.7610 0004690 333.0326  27.0314 15.28847070 67738
STARLINK-34412          
1 66132U 25237U   26068.31141759  .00027999  00000+0  95382-3 0  9995
2 66132  53.1637  41.3082 0001041  91.6186 268.4935 15.30203193 22468
